NORAD_CAT_ID,OBJECT_NAME,OBJECT_TYPE,EPOCH,MEAN_MOTION,ECCENTRICITY,INCLINATION,RA_OF_ASC_NODE,ARG_OF_PERICENTER,MEAN_ANOMALY,BSTAR,MEAN_MOTION_DOT,MEAN_MOTION_DDOT,TLE_LINE0,TLE_LINE1,TLE_LINE2,SEMIMAJOR_AXIS,PERIOD,APOGEE,PERIGEE,DECAYED
53773.0,STARLINK-4718,PAYLOAD,2023-06-08 05:02:39,15.08835897,0.0001318,53.2161,117.815,86.2441,273.8702,3.2621e-05,2.31e-06,0.0,0 STARLINK-4718,1 53773U 22111A   23159.21017390  .00000231  00000-0  32621-4 0  9999,2 53773  53.2161 117.8150 0001318  86.2441 273.8702 15.08835897 42050,6917.893,95.438,540.67,538.846,0.0
53773.0,STARLINK-4718,PAYLOAD,2023-06-08 14:34:57,15.08840038,0.0001329,53.2164,116.0308,85.9507,274.1637,5.6957e-05,6.19e-06,0.0,0 STARLINK-4718,1 53773U 22111A   23159.60761093  .00000619  00000-0  56957-4 0  9996,2 53773  53.2164 116.0308 0001329  85.9507 274.1637 15.08840038 41019,6917.88,95.438,540.665,538.826,0.0
53773.0,STARLINK-4718,PAYLOAD,2023-06-09 06:28:48,15.08850761,0.0001349,53.2161,113.0566,87.9494,272.1652,7.903e-05,9.7e-06,0.0,0 STARLINK-4718,1 53773U 22111A   23160.27000164  .00000970  00000-0  79030-4 0  9993,2 53773  53.2161 113.0566 0001349  87.9494 272.1652 15.08850761 41118,6917.847,95.437,540.646,538.779,0.0
53773.0,STARLINK-4718,PAYLOAD,2023-06-09 20:47:17,15.08839581,0.000192,53.2167,110.3748,131.5033,228.6124,-2.6559e-05,-7.11e-06,0.0,0 STARLINK-4718,1 53773U 22111A   23160.86617066 -.00000711  00000-0 -26559-4 0  9996,2 53773  53.2167 110.3748 0001920 131.5033 228.6124 15.08839581 42305,6917.882,95.438,541.075,538.418,0.0
53773.0,STARLINK-4718,PAYLOAD,2023-06-10 03:08:49,15.08837915,0.0001349,53.2168,109.1914,93.0678,267.0469,1.9483e-05,2.2e-07,0.0,0 STARLINK-4718,1 53773U 22111A   23161.13113215  .00000022  00000-0  19483-4 0  9995,2 53773  53.2168 109.1914 0001349  93.0678 267.0469 15.08837915 41249,6917.887,95.438,540.685,538.819,0.0
53773.0,STARLINK-4718,PAYLOAD,2023-06-10 06:19:36,15.08837861,0.0001353,53.2167,108.5966,93.3993,266.7154,1.908e-05,1.6e-07,0.0,0 STARLINK-4718,1 53773U 22111A   23161.26361229  .00000016  00000-0  19080-4 0  9995,2 53773  53.2167 108.5966 0001353  93.3993 266.7154 15.08837861 42367,6917.887,95.438,540.688,538.816,0.0
53773.0,STARLINK-4718,PAYLOAD,2023-06-10 20:38:04,15.0883712,0.0001089,53.2164,105.9199,99.2069,260.9046,-9.5023e-06,-4.39e-06,0.0,0 STARLINK-4718,1 53773U 22111A   23161.85977338 -.00000439  00000-0 -95023-5 0  9997,2 53773  53.2164 105.9199 0001089  99.2069 260.9046 15.08837120 42452,6917.889,95.438,540.508,539.001,0.0
53773.0,STARLINK-4718,PAYLOAD,2023-06-11 06:10:23,15.08836315,9.85e-05,53.2145,104.1372,87.8629,272.2476,7.2257e-05,8.62e-06,0.0,0 STARLINK-4718,1 53773U 22111A   23162.25721172  .00000862  00000-0  72257-4 0  9996,2 53773  53.2145 104.1372 0000985  87.8629 272.2476 15.08836315 41417,6917.892,95.438,540.438,539.075,0.0
53773.0,STARLINK-4718,PAYLOAD,2023-06-11 18:53:28,15.0883503,0.0001152,53.2162,101.7572,96.3866,263.7258,3.8744e-05,3.29e-06,0.0,0 STARLINK-4718,1 53773U 22111A   23162.78713442  .00000329  00000-0  38744-4 0  9996,2 53773  53.2162 101.7572 0001152  96.3866 263.7258 15.08835030 42592,6917.896,95.438,540.558,538.964,0.0
53773.0,STARLINK-4718,PAYLOAD,2023-06-12 12:22:42,15.08842451,0.0001034,53.216,98.487,86.842,273.269,5.8157e-05,6.38e-06,0.0,0 STARLINK-4718,1 53773U 22111A   23163.51576955  .00000638  00000-0  58157-4 0  9997,2 53773  53.2160  98.4870 0001034  86.8420 273.2690 15.08842451 42706,6917.873,95.437,540.453,539.023,0.0
53773.0,STARLINK-4718,PAYLOAD,2023-06-13 02:41:11,15.08833455,0.0001311,53.2178,95.8114,95.353,264.7612,1.7309e-05,-1.2e-07,0.0,0 STARLINK-4718,1 53773U 22111A   23164.11193886 -.00000012  00000-0  17309-4 0  9993,2 53773  53.2178  95.8114 0001311  95.3530 264.7612 15.08833455 41692,6917.9,95.438,540.672,538.858,0.0
53773.0,STARLINK-4718,PAYLOAD,2023-06-13 18:35:02,15.08836093,0.0001061,53.2185,92.84,103.4031,256.7079,7.6322e-05,9.27e-06,0.0,0 STARLINK-4718,1 53773U 22111A   23164.77433560  .00000927  00000-0  76322-4 0  9995,2 53773  53.2185  92.8400 0001061 103.4031 256.7079 15.08836093 42896,6917.892,95.438,540.491,539.023,0.0
53773.0,STARLINK-4718,PAYLOAD,2023-06-14 04:07:20,15.08844535,0.0001165,53.2165,91.0544,104.0326,256.0795,9.41e-05,1.21e-05,0.0,0 STARLINK-4718,1 53773U 22111A   23165.17177012  .00001210  00000-0  94100-4 0  9997,2 53773  53.2165  91.0544 0001165 104.0326 256.0795 15.08844535 41856,6917.867,95.437,540.537,538.926,0.0
53773.0,STARLINK-4718,PAYLOAD,2023-06-14 18:25:49,15.08833777,0.0001337,53.2167,88.378,84.9774,275.1371,6.8709e-05,8.06e-06,0.0,0 STARLINK-4718,1 53773U 22111A   23165.76793917  .00000806  00000-0  68709-4 0  9996,2 53773  53.2167  88.3780 0001337  84.9774 275.1371 15.08833777 41941,6917.899,95.438,540.689,538.839,0.0
53773.0,STARLINK-4718,PAYLOAD,2023-06-15 03:58:08,15.08835515,0.0001018,53.2167,86.5932,91.7086,268.4023,3.1931e-05,2.2e-06,0.0,0 STARLINK-4718,1 53773U 22111A   23166.16538041  .00000220  00000-0  31931-4 0  9993,2 53773  53.2167  86.5932 0001018  91.7086 268.4023 15.08835515 43109,6917.894,95.438,540.463,539.055,0.0
53773.0,STARLINK-4718,PAYLOAD,2023-06-15 18:16:37,15.08840707,0.0001072,53.2172,83.9152,97.6672,262.4442,-1.9537e-05,-5.99e-06,0.0,0 STARLINK-4718,1 53773U 22111A   23166.76154079 -.00000599  00000-0 -19537-4 0  9993,2 53773  53.2172  83.9152 0001072  97.6672 262.4442 15.08840707 43193,6917.878,95.438,540.485,539.002,0.0
53773.0,STARLINK-4718,PAYLOAD,2023-06-16 00:38:09,15.0884535,0.0001053,53.2174,82.7257,95.6711,264.4401,1.8456e-05,6e-08,0.0,0 STARLINK-4718,1 53773U 22111A   23167.02649563  .00000006  00000-0  18456-4 0  9990,2 53773  53.2174  82.7257 0001053  95.6711 264.4401 15.08845350 42138,6917.864,95.437,540.457,539.001,0.0
53773.0,STARLINK-4718,PAYLOAD,2023-06-16 02:13:31,15.08852427,0.0001154,53.217,82.4285,96.5086,263.6038,8.8989e-05,1.129e-05,0.0,0 STARLINK-4718,1 53773U 22111A   23167.09272924  .00001129  00000-0  88989-4 0  9995,2 53773  53.2170  82.4285 0001154  96.5086 263.6038 15.08852427 42140,6917.842,95.437,540.506,538.909,0.0
53773.0,STARLINK-4718,PAYLOAD,2023-06-16 11:45:50,15.0885408,0.0001098,53.2167,80.6455,102.7085,257.403,5.4904e-05,5.86e-06,0.0,0 STARLINK-4718,1 53773U 22111A   23167.49016651  .00000586  00000-0  54904-4 0  9998,2 53773  53.2167  80.6455 0001098 102.7085 257.4030 15.08854080 43300,6917.837,95.437,540.462,538.943,0.0
53773.0,STARLINK-4718,PAYLOAD,2023-06-16 18:07:23,15.0884434,0.000119,53.2168,79.4553,95.1229,264.9899,0.00011074,1.475e-05,0.0,0 STARLINK-4718,1 53773U 22111A   23167.75513113  .00001475  00000-0  11074-3 0  9990,2 53773  53.2168  79.4553 0001190  95.1229 264.9899 15.08844340 43342,6917.867,95.437,540.555,538.909,0.0
53773.0,STARLINK-4718,PAYLOAD,2023-06-17 11:36:38,15.08834994,0.0001149,53.2166,76.1848,89.2443,270.8681,1.4007e-05,-6.5e-07,0.0,0 STARLINK-4718,1 53773U 22111A   23168.48377845 -.00000065  00000-0  14007-4 0  9996,2 53773  53.2166  76.1848 0001149  89.2443 270.8681 15.08834994 43458,6917.896,95.438,540.556,538.966,0.0
53773.0,STARLINK-4718,PAYLOAD,2023-06-17 17:58:12,15.08822029,0.0001255,53.2162,74.9962,83.6125,276.501,-0.00023015,-3.947e-05,0.0,0 STARLINK-4718,1 53773U 22111A   23168.74875647 -.00003947  00000-0 -23015-3 0  9999,2 53773  53.2162  74.9962 0001255  83.6125 276.5010 15.08822029 42397,6917.935,95.439,540.669,538.932,0.0
53773.0,STARLINK-4718,PAYLOAD,2023-06-17 19:33:35,15.0882802,0.0001408,53.2163,74.6984,97.8057,262.3095,-0.00010059,-1.888e-05,0.0,0 STARLINK-4718,1 53773U 22111A   23168.81498871 -.00001888  00000-0 -10059-3 0  9993,2 53773  53.2163  74.6984 0001408  97.8057 262.3095 15.08828020 43507,6917.917,95.438,540.756,538.808,0.0
53773.0,STARLINK-4718,PAYLOAD,2023-06-18 00:19:45,15.08823994,0.0001167,53.2167,73.8064,88.9162,271.1964,-0.00019835,-3.442e-05,0.0,0 STARLINK-4718,1 53773U 22111A   23169.01371606 -.00003442  00000-0 -19835-3 0  9991,2 53773  53.2167  73.8064 0001167  88.9162 271.1964 15.08823994 43532,6917.929,95.439,540.602,538.987,0.0
53773.0,STARLINK-4718,PAYLOAD,2023-06-18 17:48:58,15.08835546,0.0001075,53.217,70.536,88.0323,272.0792,-3.3303e-05,-8.18e-06,0.0,0 STARLINK-4718,1 53773U 22111A   23169.74234752 -.00000818  00000-0 -33303-4 0  9992,2 53773  53.2170  70.5360 0001075  88.0323 272.0792 15.08835546 42542,6917.894,95.438,540.503,539.015,0.0
53773.0,STARLINK-4718,PAYLOAD,2023-06-19 03:21:16,15.0884867,0.0001108,53.2169,68.7511,89.9103,270.2016,6.5533e-05,7.56e-06,0.0,0 STARLINK-4718,1 53773U 22111A   23170.13977800  .00000756  00000-0  65533-4 0  9994,2 53773  53.2169  68.7511 0001108  89.9103 270.2016 15.08848670 42608,6917.854,95.437,540.485,538.952,0.0
53773.0,STARLINK-4718,PAYLOAD,2023-06-19 12:53:36,15.08834712,0.0001145,53.2164,66.9677,80.1199,279.9922,0.00044702,6.833e-05,0.0,0 STARLINK-4718,1 53773U 22111A   23170.53723139  .00006833  00000-0  44702-3 0  9998,2 53773  53.2164  66.9677 0001145  80.1199 279.9922 15.08834712 43767,6917.897,95.438,540.554,538.969,0.0
53773.0,STARLINK-4718,PAYLOAD,2023-06-19 19:15:09,15.08841811,0.000115,53.2165,65.7783,80.1892,279.923,0.00048142,7.383e-05,0.0,0 STARLINK-4718,1 53773U 22111A   23170.80218952  .00007383  00000-0  48142-3 0  9993,2 53773  53.2165  65.7783 0001150  80.1892 279.9230 15.08841811 43804,6917.875,95.437,540.535,538.944,0.0
53773.0,STARLINK-4718,PAYLOAD,2023-06-20 09:33:36,15.0885182,0.0001268,53.2162,63.1011,81.1718,278.9418,0.00029025,4.336e-05,0.0,0 STARLINK-4718,1 53773U 22111A   23171.39834351  .00004336  00000-0  29025-3 0  9999,2 53773  53.2162  63.1011 0001268  81.1718 278.9418 15.08851820 42790,6917.844,95.437,540.586,538.832,0.0
53773.0,STARLINK-4718,PAYLOAD,2023-06-20 20:41:18,15.08842452,0.0001211,53.2161,61.0207,106.7982,253.3143,-6.2179e-05,-1.277e-05,0.0,0 STARLINK-4718,1 53773U 22111A   23171.86202317 -.00001277  00000-0 -62179-4 0  9993,2 53773  53.2161  61.0207 0001211 106.7982 253.3143 15.08842452 43961,6917.873,95.437,540.576,538.9,0.0
